[{"OBJECT_NAME":"SENTINEL-3B","OBJECT_ID":"2018-039A","EPOCH":"2026-03-09T22:56:26.429280","MEAN_MOTION":14.26736439,"ECCENTRICITY":9.653e-5,"INCLINATION":98.6227,"RA_OF_ASC_NODE":137.8858,"ARG_OF_PERICENTER":127.5232,"MEAN_ANOMALY":232.6036,"EPHEMERIS_TYPE":0,"CLASSIFICATION_TYPE":"U","NORAD_CAT_ID":43437,"ELEMENT_SET_NO":999,"REV_AT_EPOCH":40997,"BSTAR":7.6183716e-5,"MEAN_MOTION_DOT":1.41e-6,"MEAN_MOTION_DDOT":0},{"OBJECT_NAME":"DELTA 2 R\/B","OBJECT_ID":"1999-008D","EPOCH":"2026-03-09T17:39:42.127200","MEAN_MOTION":14.49204498,"ECCENTRICITY":0.01361954,"INCLINATION":96.4862,"RA_OF_ASC_NODE":347.8898,"ARG_OF_PERICENTER":207.623,"MEAN_ANOMALY":217.0486,"EPHEMERIS_TYPE":0,"CLASSIFICATION_TYPE":"U","NORAD_CAT_ID":25637,"ELEMENT_SET_NO":999,"REV_AT_EPOCH":42635,"BSTAR":0.00012941754,"MEAN_MOTION_DOT":5.22e-6,"MEAN_MOTION_DDOT":0}]
